NORAD_CAT_ID,OBJECT_NAME,OBJECT_TYPE,EPOCH,MEAN_MOTION,ECCENTRICITY,INCLINATION,RA_OF_ASC_NODE,ARG_OF_PERICENTER,MEAN_ANOMALY,BSTAR,MEAN_MOTION_DOT,MEAN_MOTION_DDOT,TLE_LINE0,TLE_LINE1,TLE_LINE2,SEMIMAJOR_AXIS,PERIOD,APOGEE,PERIGEE,DECAYED
56804.0,STARLINK-6069,PAYLOAD,2023-12-15 22:00:00,15.1158854,0.0003325,69.9993,218.9081,268.1012,150.8184,-0.059023,-0.00928581,0.0,0 STARLINK-6069,1 56804U 23078AP  23349.91667824 -.00928581  00000-0 -59023-1 0  9992,2 56804  69.9993 218.9081 0003325 268.1012 150.8184 15.11588540 31382,6909.492,95.264,533.654,529.06,0.0
56804.0,STARLINK-6069,PAYLOAD,2023-12-16 14:00:01,15.10268327,0.0003253,69.9992,217.1939,263.7729,180.3327,-0.058202,-0.00885908,0.0,0 STARLINK-6069,1 56804U 23078AP  23350.58334491 -.00885908  00000-0 -58202-1 0  9991,2 56804  69.9992 217.1939 0003253 263.7729 180.3327 15.10268327  5903,6913.518,95.347,537.632,533.134,0.0
56804.0,STARLINK-6069,PAYLOAD,2023-12-16 22:00:00,15.09626705,0.0003246,69.9993,216.3381,268.1735,187.3571,-0.061761,-0.00920818,0.0,0 STARLINK-6069,1 56804U 23078AP  23350.91667824 -.00920818  00000-0 -61761-1 0  9991,2 56804  69.9993 216.3381 0003246 268.1735 187.3571 15.09626705  5953,6915.477,95.388,539.587,535.097,0.0
56804.0,STARLINK-6069,PAYLOAD,2023-12-17 06:00:00,15.08999944,0.0003153,69.999,215.4831,268.6607,197.4986,-0.066006,-0.00963705,0.0,0 STARLINK-6069,1 56804U 23078AP  23351.25001157 -.00963705  00000-0 -66006-1 0  9999,2 56804  69.9990 215.4831 0003153 268.6607 197.4986 15.08999944 31587,6917.392,95.427,541.438,537.075,0.0
56804.0,STARLINK-6069,PAYLOAD,2023-12-17 14:00:01,15.08315973,0.0003172,69.9994,214.629,262.8977,213.1843,-0.061917,-0.00892625,0.0,0 STARLINK-6069,1 56804U 23078AP  23351.58335648 -.00892625  00000-0 -61917-1 0  9998,2 56804  69.9994 214.6290 0003172 262.8977 213.1843 15.08315973  5862,6919.483,95.471,543.542,539.153,0.0
56804.0,STARLINK-6069,PAYLOAD,2023-12-17 22:00:00,15.07665492,0.000318,69.9995,213.7758,267.6632,217.4371,-0.064596,-0.00913221,0.0,0 STARLINK-6069,1 56804U 23078AP  23351.91667824 -.00913221  00000-0 -64596-1 0  9991,2 56804  69.9995 213.7758 0003180 267.6632 217.4371 15.07665492 31687,6921.473,95.512,545.539,541.137,0.0
56804.0,STARLINK-6069,PAYLOAD,2023-12-18 14:00:01,15.06362643,0.0003139,69.9998,212.0719,262.4416,238.4507,-0.065675,-0.00897367,0.0,0 STARLINK-6069,1 56804U 23078AP  23352.58334491 -.00897367  00000-0 -65675-1 0  9997,2 56804  69.9998 212.0719 0003139 262.4416 238.4507 15.06362643  5839,6925.463,95.595,549.502,545.154,0.0
56804.0,STARLINK-6069,PAYLOAD,2023-12-18 22:00:01,15.05705028,0.0003153,69.9998,211.2213,267.3875,240.3042,-0.067599,-0.00906643,0.0,0 STARLINK-6069,1 56804U 23078AP  23352.91668981 -.00906643  00000-0 -67599-1 0  9993,2 56804  69.9998 211.2213 0003153 267.3875 240.3042 15.05705028 31841,6927.479,95.636,551.529,547.16,0.0
56804.0,STARLINK-6069,PAYLOAD,2023-12-19 14:00:01,15.04409584,0.0003114,70.0002,209.5227,261.9869,256.7381,-0.069682,-0.00902837,0.0,0 STARLINK-6069,1 56804U 23078AP  23353.58334491 -.00902837  00000-0 -69682-1 0  9999,2 56804  70.0002 209.5227 0003114 261.9869 256.7381 15.04409584  5985,6931.456,95.719,555.479,551.162,0.0
56804.0,STARLINK-6069,PAYLOAD,2023-12-19 22:00:00,15.03745154,0.0003128,70.0001,208.6747,267.5045,255.6122,-0.070679,-0.00899836,0.0,0 STARLINK-6069,1 56804U 23078AP  23353.91667824 -.00899836  00000-0 -70679-1 0  9997,2 56804  70.0001 208.6747 0003128 267.5045 255.6122 15.03745154 31990,6933.497,95.761,557.531,553.193,0.0
56804.0,STARLINK-6069,PAYLOAD,2023-12-20 14:00:01,15.02455432,0.0003082,70.0004,206.9813,262.0443,267.4731,-0.073736,-0.009065,0.0,0 STARLINK-6069,1 56804U 23078AP  23354.58334491 -.00906500  00000-0 -73736-1 0  9996,2 56804  70.0004 206.9813 0003082 262.0443 267.4731 15.02455432 32094,6937.465,95.843,561.468,557.191,0.0
56804.0,STARLINK-6069,PAYLOAD,2023-12-20 22:00:00,15.01785919,0.0003074,70.0002,206.1359,268.0086,263.5552,-0.074026,-0.00894944,0.0,0 STARLINK-6069,1 56804U 23078AP  23354.91667824 -.00894944  00000-0 -74026-1 0  9993,2 56804  70.0002 206.1359 0003074 268.0086 263.5552 15.01785919  5957,6939.526,95.886,563.524,559.258,0.0
56804.0,STARLINK-6069,PAYLOAD,2023-12-21 06:00:00,15.01166693,0.0002987,70.0001,205.2914,266.5844,266.2203,-0.080939,-0.00968623,0.0,0 STARLINK-6069,1 56804U 23078AP  23355.25001157 -.00968623  00000-0 -80939-1 0  9998,2 56804  70.0001 205.2914 0002987 266.5844 266.2203 15.01166693 32191,6941.434,95.925,565.373,561.226,0.0
56804.0,STARLINK-6069,PAYLOAD,2023-12-21 14:00:01,15.00498513,0.0003061,70.0004,204.4478,262.4602,270.8085,-0.077656,-0.00906548,0.0,0 STARLINK-6069,1 56804U 23078AP  23355.58334491 -.00906548  00000-0 -77656-1 0  9994,2 56804  70.0004 204.4478 0003061 262.4602 270.8085 15.00498513  6065,6943.495,95.968,567.485,563.235,0.0
56804.0,STARLINK-6069,PAYLOAD,2023-12-21 22:00:01,14.99696074,0.0003221,70.0001,203.6049,268.6827,264.3759,-0.044991,-0.00522549,0.0,0 STARLINK-6069,1 56804U 23078AP  23355.91668981 -.00522549  00000-0 -44991-1 0  9996,2 56804  70.0001 203.6049 0003221 268.6827 264.3759 14.99696074 32291,6945.972,96.019,570.074,565.599,0.0
56804.0,STARLINK-6069,PAYLOAD,2023-12-22 06:00:00,14.99318347,0.0003221,69.9998,202.763,267.2895,264.5892,-0.0039522,-0.00048146,0.0,0 STARLINK-6069,1 56804U 23078AP  23356.25001157 -.00048146  00000-0 -39522-2 0  9991,2 56804  69.9998 202.7630 0003221 267.2895 264.5892 14.99318347 32349,6947.138,96.044,571.241,566.766,0.0
56804.0,STARLINK-6069,PAYLOAD,2023-12-22 14:00:01,14.99292551,0.0003219,70.0001,201.9211,264.4375,266.0768,0.0011598,0.00014123,0.0,0 STARLINK-6069,1 56804U 23078AP  23356.58334491  .00014123  00000-0  11598-2 0  9996,2 56804  70.0001 201.9211 0003219 264.4375 266.0768 14.99292551  5912,6947.218,96.045,571.319,566.847,0.0
56804.0,STARLINK-6069,PAYLOAD,2023-12-22 22:00:00,14.99274284,0.0003217,69.9999,201.0796,271.1205,258.0347,0.0022525,0.00027557,0.0,0 STARLINK-6069,1 56804U 23078AP  23356.91667824  .00027557  00000-0  22525-2 0  9999,2 56804  69.9999 201.0796 0003217 271.1205 258.0347 14.99274284 32444,6947.274,96.046,571.374,566.904,0.0
56804.0,STARLINK-6069,PAYLOAD,2023-12-23 14:00:01,14.99303414,0.0003173,69.9997,199.3962,264.3941,262.0242,0.00051679,6.236e-05,0.0,0 STARLINK-6069,1 56804U 23078AP  23357.58334491  .00006236  00000-0  51679-3 0  9998,2 56804  69.9997 199.3962 0003173 264.3941 262.0242 14.99303414  5591,6947.184,96.045,571.254,566.845,0.0
56804.0,STARLINK-6069,PAYLOAD,2023-12-23 22:00:00,14.99286078,0.0003186,69.9995,198.5544,270.8058,254.2695,0.002231,0.00027301,0.0,0 STARLINK-6069,1 56804U 23078AP  23357.91667824  .00027301  00000-0  22310-2 0  9999,2 56804  69.9995 198.5544 0003186 270.8058 254.2695 14.99286078 32592,6947.238,96.046,571.316,566.889,0.0
56804.0,STARLINK-6069,PAYLOAD,2023-12-24 14:00:01,14.99317211,0.0003182,69.9993,196.8709,264.0816,258.284,0.00017701,2.074e-05,0.0,0 STARLINK-6069,1 56804U 23078AP  23358.58334491  .00002074  00000-0  17701-3 0  9993,2 56804  69.9993 196.8709 0003182 264.0816 258.2840 14.99317211  5755,6947.142,96.044,571.217,566.796,0.0
56804.0,STARLINK-6069,PAYLOAD,2023-12-24 22:00:00,14.9930128,0.0003191,69.9991,196.0291,270.7504,250.2867,0.00072895,8.837e-05,0.0,0 STARLINK-6069,1 56804U 23078AP  23358.91667824  .00008837  00000-0  72895-3 0  9997,2 56804  69.9991 196.0291 0003191 270.7504 250.2867 14.99301280 32748,6947.191,96.045,571.273,566.839,0.0
56804.0,STARLINK-6069,PAYLOAD,2023-12-25 14:53:51,14.99302865,0.0003185,69.998,194.2512,266.1711,93.9084,3.2774e-05,3.07e-06,0.0,0 STARLINK-6069,1 56804U 23078AP  23359.62073140  .00000307  00000-0  32774-4 0  9995,2 56804  69.9980 194.2512 0003185 266.1711  93.9084 14.99302865 33254,6947.186,96.045,571.264,566.838,0.0
56804.0,STARLINK-6069,PAYLOAD,2023-12-25 19:42:04,14.9930306,0.0003197,69.998,193.7456,266.0381,94.0413,3.1495e-05,2.92e-06,0.0,0 STARLINK-6069,1 56804U 23078AP  23359.82088122  .00000292  00000-0  31495-4 0  9995,2 56804  69.9980 193.7456 0003197 266.0381  94.0413 14.99303060 32873,6947.185,96.045,571.271,566.829,0.0
56804.0,STARLINK-6069,PAYLOAD,2023-12-25 21:18:08,14.99304508,0.0003165,69.9981,193.5774,265.4164,94.6634,4.8051e-05,4.94e-06,0.0,0 STARLINK-6069,1 56804U 23078AP  23359.88759640  .00000494  00000-0  48051-4 0  9991,2 56804  69.9981 193.5774 0003165 265.4164  94.6634 14.99304508 33298,6947.181,96.045,571.245,566.847,0.0
56804.0,STARLINK-6069,PAYLOAD,2023-12-25 22:54:13,14.9929188,0.0003359,69.9973,193.4069,270.8741,89.2034,-0.00011226,-1.467e-05,0.0,0 STARLINK-6069,1 56804U 23078AP  23359.95432523 -.00001467  00000-0 -11226-3 0  9993,2 56804  69.9973 193.4069 0003359 270.8741  89.2034 14.99291880 32898,6947.22,96.045,571.419,566.751,0.0
56804.0,STARLINK-6069,PAYLOAD,2023-12-26 11:43:28,14.9883715,0.0003248,69.9984,192.0632,249.022,111.0592,-0.0048231,-0.00057925,0.0,0 STARLINK-6069,1 56804U 23078AP  23360.48852544 -.00057925  00000-0 -48231-2 0  9997,2 56804  69.9984 192.0632 0003248 249.0220 111.0592 14.98837150 32975,6948.625,96.074,572.747,568.233,0.0
56804.0,STARLINK-6069,PAYLOAD,2023-12-26 14:55:45,14.98774304,0.0003196,69.9981,191.7264,270.0741,90.0052,-0.0053643,-0.00064252,0.0,0 STARLINK-6069,1 56804U 23078AP  23360.62205291 -.00064252  00000-0 -53643-2 0  9998,2 56804  69.9981 191.7264 0003196 270.0741  90.0052 14.98774304 33400,6948.819,96.079,572.905,568.463,0.0
56804.0,STARLINK-6069,PAYLOAD,2023-12-26 19:44:04,14.98753135,0.0003195,69.998,191.2212,265.3995,94.68,-0.0053245,-0.00063746,0.0,0 STARLINK-6069,1 56804U 23078AP  23360.82227851 -.00063746  00000-0 -53245-2 0  9991,2 56804  69.9980 191.2212 0003195 265.3995  94.6800 14.98753135 33022,6948.885,96.08,572.97,568.53,0.0
56804.0,STARLINK-6069,PAYLOAD,2023-12-26 21:20:11,14.98745499,0.0003209,69.998,191.0527,264.9156,95.1637,-0.0053132,-0.00063599,0.0,0 STARLINK-6069,1 56804U 23078AP  23360.88902194 -.00063599  00000-0 -53132-2 0  9998,2 56804  69.9980 191.0527 0003209 264.9156  95.1637 14.98745499 33443,6948.908,96.08,573.003,568.543,0.0
